SHIYAN-32 C             
1 66378U 25255C   25317.26257226  .00088654  00000+0  20259-2 0  9999
2 66378  53.0001 318.0118 0014268 310.3368  49.6389 15.42017521   667
CZ-11H R/B              
1 66379U 25255D   25317.19806488  .00038282  00000+0  89607-3 0  9997
2 66379  52.9984 318.3232 0015071 308.4955  51.4697 15.41663482   675
CHUTIAN-2 A             
1 66409U 25256A   25317.19313089  .00000173  00000+0  55068-4 0  9995
2 66409  98.2796  22.4662 0012738 274.3205  85.6534 14.50838934   594
CHUTIAN-2 B             
1 66410U 25256B   25317.19278127  .00000401  00000+0  11251-3 0  9999
2 66410  98.2828  22.4668 0012727 277.0537  82.9210 14.50966872   598
HULIANWANG DIGUI 13A    
1 66412U 25258A   25317.16988096  .00000054  00000+0  89179-4 0  9992
2 66412  50.0046  26.5608 0013884 255.8000 104.1372 14.25865353   445
HULIANWANG DIGUI 13B    
1 66413U 25258B   25316.74913053  .00000134  00000+0  12246-3 0  9996
2 66413  50.0040  28.3330 0013163 252.9196 107.0276 14.25997308   380
HULIANWANG DIGUI 13C    
1 66414U 25258C   25317.16960296  .00000142  00000+0  12552-3 0  9994
2 66414  50.0048  26.5535 0013278 255.7090 104.2350 14.25996677   444
HULIANWANG DIGUI 13D    
1 66415U 25258D   25317.16947867  .00000142  00000+0  12555-3 0  9997
2 66415  50.0052  26.5591 0013153 261.2099  98.7325 14.26053869   442
HULIANWANG DIGUI 13E    
1 66416U 25258E   25317.23927340  .00000143  00000+0  12579-3 0  9997
2 66416  50.0071  26.2628 0012460 260.8645  99.0859 14.26184280   453
HULIANWANG DIGUI 13F    
1 66417U 25258F   25316.60855648  .00000130  00000+0  12039-3 0  9996
2 66417  50.0012  28.9161 0012022 253.4254 106.5340 14.26239453   360
HULIANWANG DIGUI 13G    
1 66418U 25258G   25317.16909829  .00000142  00000+0  12525-3 0  9993
2 66418  50.0007  26.5456 0012398 259.6449 100.3067 14.26232210   447
