CCSDS_OMM_VERS = 2.0
CREATION_DATE  = 
ORIGINATOR     = 

OBJECT_NAME    = SHIYAN-32 C
OBJECT_ID      = 2025-255C
CENTER_NAME    = EARTH
REF_FRAME      = TEME
TIME_SYSTEM    = UTC
MEAN_ELEMENT_THEORY = SGP/SGP4

EPOCH          = 2025-11-13T06:18:06.243264
MEAN_MOTION    = 15.42017521
ECCENTRICITY   = .00142687
INCLINATION    = 53.0001
RA_OF_ASC_NODE = 318.0118
ARG_OF_PERICENTER = 310.3368
MEAN_ANOMALY   = 49.6389

EPHEMERIS_TYPE = 0
CLASSIFICATION_TYPE = U
NORAD_CAT_ID   = 66378
ELEMENT_SET_NO = 999
REV_AT_EPOCH   = 66
BSTAR          = .20259192E-2
MEAN_MOTION_DOT = .88654E-3
MEAN_MOTION_DDOT = 0

CCSDS_OMM_VERS = 2.0
CREATION_DATE  = 
ORIGINATOR     = 

OBJECT_NAME    = CZ-11H R/B
OBJECT_ID      = 2025-255D
CENTER_NAME    = EARTH
REF_FRAME      = TEME
TIME_SYSTEM    = UTC
MEAN_ELEMENT_THEORY = SGP/SGP4

EPOCH          = 2025-11-13T04:45:12.805632
MEAN_MOTION    = 15.41663482
ECCENTRICITY   = .00150719
INCLINATION    = 52.9984
RA_OF_ASC_NODE = 318.3232
ARG_OF_PERICENTER = 308.4955
MEAN_ANOMALY   = 51.4697

EPHEMERIS_TYPE = 0
CLASSIFICATION_TYPE = U
NORAD_CAT_ID   = 66379
ELEMENT_SET_NO = 999
REV_AT_EPOCH   = 67
BSTAR          = .89606778E-3
MEAN_MOTION_DOT = .38282E-3
MEAN_MOTION_DDOT = 0

CCSDS_OMM_VERS = 2.0
CREATION_DATE  = 
ORIGINATOR     = 

OBJECT_NAME    = CHUTIAN-2 A
OBJECT_ID      = 2025-256A
CENTER_NAME    = EARTH
REF_FRAME      = TEME
TIME_SYSTEM    = UTC
MEAN_ELEMENT_THEORY = SGP/SGP4

EPOCH          = 2025-11-13T04:38:06.508896
MEAN_MOTION    = 14.50838934
ECCENTRICITY   = .00127386
INCLINATION    = 98.2796
RA_OF_ASC_NODE = 22.4662
ARG_OF_PERICENTER = 274.3205
MEAN_ANOMALY   = 85.6534

EPHEMERIS_TYPE = 0
CLASSIFICATION_TYPE = U
NORAD_CAT_ID   = 66409
ELEMENT_SET_NO = 999
REV_AT_EPOCH   = 59
BSTAR          = .55068197E-4
MEAN_MOTION_DOT = .173E-5
MEAN_MOTION_DDOT = 0

CCSDS_OMM_VERS = 2.0
CREATION_DATE  = 
ORIGINATOR     = 

OBJECT_NAME    = CHUTIAN-2 B
OBJECT_ID      = 2025-256B
CENTER_NAME    = EARTH
REF_FRAME      = TEME
TIME_SYSTEM    = UTC
MEAN_ELEMENT_THEORY = SGP/SGP4

EPOCH          = 2025-11-13T04:37:36.301728
MEAN_MOTION    = 14.50966872
ECCENTRICITY   = .00127275
INCLINATION    = 98.2828
RA_OF_ASC_NODE = 22.4668
ARG_OF_PERICENTER = 277.0537
MEAN_ANOMALY   = 82.9210

EPHEMERIS_TYPE = 0
CLASSIFICATION_TYPE = U
NORAD_CAT_ID   = 66410
ELEMENT_SET_NO = 999
REV_AT_EPOCH   = 59
BSTAR          = .1125069E-3
MEAN_MOTION_DOT = .401E-5
MEAN_MOTION_DDOT = 0

CCSDS_OMM_VERS = 2.0
CREATION_DATE  = 
ORIGINATOR     = 

OBJECT_NAME    = HULIANWANG DIGUI 13A
OBJECT_ID      = 2025-258A
CENTER_NAME    = EARTH
REF_FRAME      = TEME
TIME_SYSTEM    = UTC
MEAN_ELEMENT_THEORY = SGP/SGP4

EPOCH          = 2025-11-13T04:04:37.714944
MEAN_MOTION    = 14.25865353
ECCENTRICITY   = .00138844
INCLINATION    = 50.0046
RA_OF_ASC_NODE = 26.5608
ARG_OF_PERICENTER = 255.8000
MEAN_ANOMALY   = 104.1372

EPHEMERIS_TYPE = 0
CLASSIFICATION_TYPE = U
NORAD_CAT_ID   = 66412
ELEMENT_SET_NO = 999
REV_AT_EPOCH   = 44
BSTAR          = .89179467E-4
MEAN_MOTION_DOT = .54E-6
MEAN_MOTION_DDOT = 0

CCSDS_OMM_VERS = 2.0
CREATION_DATE  = 
ORIGINATOR     = 

OBJECT_NAME    = HULIANWANG DIGUI 13B
OBJECT_ID      = 2025-258B
CENTER_NAME    = EARTH
REF_FRAME      = TEME
TIME_SYSTEM    = UTC
MEAN_ELEMENT_THEORY = SGP/SGP4

EPOCH          = 2025-11-12T17:58:44.877792
MEAN_MOTION    = 14.25997308
ECCENTRICITY   = .00131634
INCLINATION    = 50.0040
RA_OF_ASC_NODE = 28.3330
ARG_OF_PERICENTER = 252.9196
MEAN_ANOMALY   = 107.0276

EPHEMERIS_TYPE = 0
CLASSIFICATION_TYPE = U
NORAD_CAT_ID   = 66413
ELEMENT_SET_NO = 999
REV_AT_EPOCH   = 38
BSTAR          = .12245957E-3
MEAN_MOTION_DOT = .134E-5
MEAN_MOTION_DDOT = 0

CCSDS_OMM_VERS = 2.0
CREATION_DATE  = 
ORIGINATOR     = 

OBJECT_NAME    = HULIANWANG DIGUI 13C
OBJECT_ID      = 2025-258C
CENTER_NAME    = EARTH
REF_FRAME      = TEME
TIME_SYSTEM    = UTC
MEAN_ELEMENT_THEORY = SGP/SGP4

EPOCH          = 2025-11-13T04:04:13.695744
MEAN_MOTION    = 14.25996677
ECCENTRICITY   = .00132784
INCLINATION    = 50.0048
RA_OF_ASC_NODE = 26.5535
ARG_OF_PERICENTER = 255.7090
MEAN_ANOMALY   = 104.2350

EPHEMERIS_TYPE = 0
CLASSIFICATION_TYPE = U
NORAD_CAT_ID   = 66414
ELEMENT_SET_NO = 999
REV_AT_EPOCH   = 44
BSTAR          = .12551863E-3
MEAN_MOTION_DOT = .142E-5
MEAN_MOTION_DDOT = 0

CCSDS_OMM_VERS = 2.0
CREATION_DATE  = 
ORIGINATOR     = 

OBJECT_NAME    = HULIANWANG DIGUI 13D
OBJECT_ID      = 2025-258D
CENTER_NAME    = EARTH
REF_FRAME      = TEME
TIME_SYSTEM    = UTC
MEAN_ELEMENT_THEORY = SGP/SGP4

EPOCH          = 2025-11-13T04:04:02.957088
MEAN_MOTION    = 14.26053869
ECCENTRICITY   = .00131536
INCLINATION    = 50.0052
RA_OF_ASC_NODE = 26.5591
ARG_OF_PERICENTER = 261.2099
MEAN_ANOMALY   = 98.7325

EPHEMERIS_TYPE = 0
CLASSIFICATION_TYPE = U
NORAD_CAT_ID   = 66415
ELEMENT_SET_NO = 999
REV_AT_EPOCH   = 44
BSTAR          = .12554573E-3
MEAN_MOTION_DOT = .142E-5
MEAN_MOTION_DDOT = 0

CCSDS_OMM_VERS = 2.0
CREATION_DATE  = 
ORIGINATOR     = 

OBJECT_NAME    = HULIANWANG DIGUI 13E
OBJECT_ID      = 2025-258E
CENTER_NAME    = EARTH
REF_FRAME      = TEME
TIME_SYSTEM    = UTC
MEAN_ELEMENT_THEORY = SGP/SGP4

EPOCH          = 2025-11-13T05:44:33.221760
MEAN_MOTION    = 14.26184280
ECCENTRICITY   = .00124607
INCLINATION    = 50.0071
RA_OF_ASC_NODE = 26.2628
ARG_OF_PERICENTER = 260.8645
MEAN_ANOMALY   = 99.0859

EPHEMERIS_TYPE = 0
CLASSIFICATION_TYPE = U
NORAD_CAT_ID   = 66416
ELEMENT_SET_NO = 999
REV_AT_EPOCH   = 45
BSTAR          = .12579062E-3
MEAN_MOTION_DOT = .143E-5
MEAN_MOTION_DDOT = 0

CCSDS_OMM_VERS = 2.0
CREATION_DATE  = 
ORIGINATOR     = 

OBJECT_NAME    = HULIANWANG DIGUI 13F
OBJECT_ID      = 2025-258F
CENTER_NAME    = EARTH
REF_FRAME      = TEME
TIME_SYSTEM    = UTC
MEAN_ELEMENT_THEORY = SGP/SGP4

EPOCH          = 2025-11-12T14:36:19.279872
MEAN_MOTION    = 14.26239453
ECCENTRICITY   = .00120223
INCLINATION    = 50.0012
RA_OF_ASC_NODE = 28.9161
ARG_OF_PERICENTER = 253.4254
MEAN_ANOMALY   = 106.5340

EPHEMERIS_TYPE = 0
CLASSIFICATION_TYPE = U
NORAD_CAT_ID   = 66417
ELEMENT_SET_NO = 999
REV_AT_EPOCH   = 36
BSTAR          = .12039144E-3
MEAN_MOTION_DOT = .13E-5
MEAN_MOTION_DDOT = 0

CCSDS_OMM_VERS = 2.0
CREATION_DATE  = 
ORIGINATOR     = 

OBJECT_NAME    = HULIANWANG DIGUI 13G
OBJECT_ID      = 2025-258G
CENTER_NAME    = EARTH
REF_FRAME      = TEME
TIME_SYSTEM    = UTC
MEAN_ELEMENT_THEORY = SGP/SGP4

EPOCH          = 2025-11-13T04:03:30.092256
MEAN_MOTION    = 14.26232210
ECCENTRICITY   = .00123983
INCLINATION    = 50.0007
RA_OF_ASC_NODE = 26.5456
ARG_OF_PERICENTER = 259.6449
MEAN_ANOMALY   = 100.3067

EPHEMERIS_TYPE = 0
CLASSIFICATION_TYPE = U
NORAD_CAT_ID   = 66418
ELEMENT_SET_NO = 999
REV_AT_EPOCH   = 44
BSTAR          = .12524943E-3
MEAN_MOTION_DOT = .142E-5
MEAN_MOTION_DDOT = 0

